{
  "type": "FeatureCollection",
  "features": [
    {
      "type": "Feature",
      "properties": {
        "norad_id": 39617,
        "name": "ASTRA 5B (EGNOS/PRN 123)",
        "group": "gnss",
        "lat": 0.004161433848656224,
        "lon": 8.872692453339846,
        "alt_km": 35786.68409370005,
        "timestamp": "2025-12-22T16:55:17.704055+00:00",
        "meta_object_name": "ASTRA 5B (EGNOS/PRN 123)",
        "meta_object_id": "2014-011B",
        "meta_epoch": "2025-12-22T04:43:04.158624",
        "meta_mean_motion": 1.00270194,
        "meta_eccentricity": 0.00044805,
        "meta_inclination": 0.0436,
        "meta_ra_of_asc_node": 5.2025,
        "meta_arg_of_pericenter": 273.0312,
        "meta_mean_anomaly": 267.0396,
        "meta_ephemeris_type": 0,
        "meta_classification_type": "U",
        "meta_norad_cat_id": 39617,
        "meta_element_set_no": 999,
        "meta_rev_at_epoch": 4289,
        "meta_bstar": 0,
        "meta_mean_motion_dot": 1.59e-06,
        "meta_mean_motion_ddot": 0,
        "tle_line1": "1 39617U 14011B   25356.19657591  .00000159  00000+0  00000+0 0  9990",
        "tle_line2": "2 39617   0.0436   5.2025 0004480 273.0312 267.0396  1.00270194 42899"
      },
      "geometry": {
        "type": "Point",
        "coordinates": [
          8.872692453339846,
          0.004161433848656224
        ]
      }
    },
    {
      "type": "Feature",
      "properties": {
        "norad_id": 39620,
        "name": "COSMOS 2492 (754)",
        "group": "gnss",
        "lat": -29.570224381675985,
        "lon": 154.9702305036028,
        "alt_km": 19140.367381010758,
        "timestamp": "2025-12-22T16:55:17.704067+00:00",
        "meta_object_name": "COSMOS 2492 (754)",
        "meta_object_id": "2014-012A",
        "meta_epoch": "2025-12-21T22:59:34.433088",
        "meta_mean_motion": 2.13103396,
        "meta_eccentricity": 0.00142426,
        "meta_inclination": 65.4026,
        "meta_ra_of_asc_node": 319.9579,
        "meta_arg_of_pericenter": 313.3292,
        "meta_mean_anomaly": 46.5466,
        "meta_ephemeris_type": 0,
        "meta_classification_type": "U",
        "meta_norad_cat_id": 39620,
        "meta_element_set_no": 999,
        "meta_rev_at_epoch": 9146,
        "meta_bstar": 0,
        "meta_mean_motion_dot": -4.2e-07,
        "meta_mean_motion_ddot": 0,
        "tle_line1": "1 39620U 14012A   25355.95803742 -.00000042  00000+0  00000+0 0  9991",
        "tle_line2": "2 39620  65.4026 319.9579 0014242 313.3292  46.5466  2.13103396 91463"
      },
      "geometry": {
        "type": "Point",
        "coordinates": [
          154.9702305036028,
          -29.570224381675985
        ]
      }
    },
    {
      "type": "Feature",
      "properties": {
        "norad_id": 39635,
        "name": "IRNSS-1B",
        "group": "gnss",
        "lat": 11.070020539814308,
        "lon": 43.03507926608149,
        "alt_km": 35710.659922101026,
        "timestamp": "2025-12-22T16:55:17.704078+00:00",
        "meta_object_name": "IRNSS-1B",
        "meta_object_id": "2014-017A",
        "meta_epoch": "2025-12-21T18:32:21.878016",
        "meta_mean_motion": 1.00271154,
        "meta_eccentricity": 0.00185297,
        "meta_inclination": 29.2394,
        "meta_ra_of_asc_node": 243.439,
        "meta_arg_of_pericenter": 175.0661,
        "meta_mean_anomaly": 5.3106,
        "meta_ephemeris_type": 0,
        "meta_classification_type": "U",
        "meta_norad_cat_id": 39635,
        "meta_element_set_no": 999,
        "meta_rev_at_epoch": 4301,
        "meta_bstar": 0,
        "meta_mean_motion_dot": 1.51e-06,
        "meta_mean_motion_ddot": 0,
        "tle_line1": "1 39635U 14017A   25355.77247544  .00000151  00000+0  00000+0 0  9994",
        "tle_line2": "2 39635  29.2394 243.4390 0018529 175.0661   5.3106  1.00271154 43017"
      },
      "geometry": {
        "type": "Point",
        "coordinates": [
          43.03507926608149,
          11.070020539814308
        ]
      }
    },
    {
      "type": "Feature",
      "properties": {
        "norad_id": 39727,
        "name": "LUCH 5V (SDCM/PRN 141)",
        "group": "gnss",
        "lat": 0.7227376328306344,
        "lon": 80.02999492779594,
        "alt_km": 35799.2249454073,
        "timestamp": "2025-12-22T16:55:17.704090+00:00",
        "meta_object_name": "LUCH 5V (SDCM/PRN 141)",
        "meta_object_id": "2014-023A",
        "meta_epoch": "2025-12-22T06:45:59.885568",
        "meta_mean_motion": 1.00275503,
        "meta_eccentricity": 0.00036992,
        "meta_inclination": 4.6926,
        "meta_ra_of_asc_node": 71.4597,
        "meta_arg_of_pericenter": 213.4787,
        "meta_mean_anomaly": 2.3604,
        "meta_ephemeris_type": 0,
        "meta_classification_type": "U",
        "meta_norad_cat_id": 39727,
        "meta_element_set_no": 999,
        "meta_rev_at_epoch": 4258,
        "meta_bstar": 0,
        "meta_mean_motion_dot": -2.5e-06,
        "meta_mean_motion_ddot": 0,
        "tle_line1": "1 39727U 14023A   25356.28194312 -.00000250  00000+0  00000+0 0  9995",
        "tle_line2": "2 39727   4.6926  71.4597 0003699 213.4787   2.3604  1.00275503 42586"
      },
      "geometry": {
        "type": "Point",
        "coordinates": [
          80.02999492779594,
          0.7227376328306344
        ]
      }
    },
    {
      "type": "Feature",
      "properties": {
        "norad_id": 39741,
        "name": "GPS BIIF-6  (PRN 06)",
        "group": "gnss",
        "lat": 6.363172243489758,
        "lon": 154.15296048858048,
        "alt_km": 20269.49414906184,
        "timestamp": "2025-12-22T16:55:17.704104+00:00",
        "meta_object_name": "GPS BIIF-6  (PRN 06)",
        "meta_object_id": "2014-026A",
        "meta_epoch": "2025-12-21T23:12:34.799616",
        "meta_mean_motion": 2.00560759,
        "meta_eccentricity": 0.00394103,
        "meta_inclination": 56.58,
        "meta_ra_of_asc_node": 338.4177,
        "meta_arg_of_pericenter": 319.2097,
        "meta_mean_anomaly": 40.4995,
        "meta_ephemeris_type": 0,
        "meta_classification_type": "U",
        "meta_norad_cat_id": 39741,
        "meta_element_set_no": 999,
        "meta_rev_at_epoch": 8498,
        "meta_bstar": 0,
        "meta_mean_motion_dot": -6.8e-07,
        "meta_mean_motion_ddot": 0,
        "tle_line1": "1 39741U 14026A   25355.96706944 -.00000068  00000+0  00000+0 0  9995",
        "tle_line2": "2 39741  56.5800 338.4177 0039410 319.2097  40.4995  2.00560759 84985"
      },
      "geometry": {
        "type": "Point",
        "coordinates": [
          154.15296048858048,
          6.363172243489758
        ]
      }
    },
    {
      "type": "Feature",
      "properties": {
        "norad_id": 40001,
        "name": "COSMOS 2500 (755)",
        "group": "gnss",
        "lat": 63.843145364044396,
        "lon": 28.884624640002517,
        "alt_km": 19137.41588446665,
        "timestamp": "2025-12-22T16:55:17.704115+00:00",
        "meta_object_name": "COSMOS 2500 (755)",
        "meta_object_id": "2014-032A",
        "meta_epoch": "2025-12-21T04:35:55.026240",
        "meta_mean_motion": 2.13106227,
        "meta_eccentricity": 0.00077299,
        "meta_inclination": 65.3386,
        "meta_ra_of_asc_node": 319.7453,
        "meta_arg_of_pericenter": 219.3736,
        "meta_mean_anomaly": 140.5635,
        "meta_ephemeris_type": 0,
        "meta_classification_type": "U",
        "meta_norad_cat_id": 40001,
        "meta_element_set_no": 999,
        "meta_rev_at_epoch": 8966,
        "meta_bstar": 0,
        "meta_mean_motion_dot": -4.7e-07,
        "meta_mean_motion_ddot": 0,
        "tle_line1": "1 40001U 14032A   25355.19160910 -.00000047  00000+0  00000+0 0  9992",
        "tle_line2": "2 40001  65.3386 319.7453 0007729 219.3736 140.5635  2.13106227 89663"
      },
      "geometry": {
        "type": "Point",
        "coordinates": [
          28.884624640002517,
          63.843145364044396
        ]
      }
    },
    {
      "type": "Feature",
      "properties": {
        "norad_id": 40105,
        "name": "GPS BIIF-7  (PRN 09)",
        "group": "gnss",
        "lat": 50.363060345295594,
        "lon": -141.3433629507127,
        "alt_km": 20090.524328552205,
        "timestamp": "2025-12-22T16:55:17.704129+00:00",
        "meta_object_name": "GPS BIIF-7  (PRN 09)",
        "meta_object_id": "2014-045A",
        "meta_epoch": "2025-12-21T13:19:50.037600",
        "meta_mean_motion": 2.00573131,
        "meta_eccentricity": 0.00324633,
        "meta_inclination": 55.2342,
        "meta_ra_of_asc_node": 95.5472,
        "meta_arg_of_pericenter": 120.1198,
        "meta_mean_anomaly": 240.2018,
        "meta_ephemeris_type": 0,
        "meta_classification_type": "U",
        "meta_norad_cat_id": 40105,
        "meta_element_set_no": 999,
        "meta_rev_at_epoch": 8251,
        "meta_bstar": 0,
        "meta_mean_motion_dot": -7e-08,
        "meta_mean_motion_ddot": 0,
        "tle_line1": "1 40105U 14045A   25355.55544025 -.00000007  00000+0  00000+0 0  9990",
        "tle_line2": "2 40105  55.2342  95.5472 0032463 120.1198 240.2018  2.00573131 82510"
      },
      "geometry": {
        "type": "Point",
        "coordinates": [
          -141.3433629507127,
          50.363060345295594
        ]
      }
    }
  ]
}